#dP2019  7  3  0  0  0.00000000      96 __u+U ITR00 FIT  IAC
## 2060 259200.00000000   900.00000000 58667 0.0000000000000
+   97   C01C02C05C06C07C08C09C10C11C12C13C14C16E01E02E03E04
+        E05E07E08E09E11E12E13E14E15E18E19E21E24E25E26E27E30
+        E31E33E36G01G02G03G04G05G06G07G08G09G10G11G12G13G14
+        G15G16G17G18G19G20G21G22G23G24G25G26G27G28G29G30G31
+        G32J01J02J03J07R01R02R03R04R05R07R08R09R10R11R12R13
+        R14R15R16R17R18R19R20R21R22R23R24R26  0  0  0  0  0
++        13 12 12  9  9  9  8  8  8  8  8  8  9  5  5  5  6
++         5  5  5  5  6  5  5  5  5  6  6  5  5  5  5  5  5
++         5  5  5  4  3  4  4  4  4  4  4  4  3  4  4  3  4
++         3  3  4  4  4  3  3  4  4  4  3  4  3  4  3  4  3
++         4 10 10 11 14  5  5  5  5  6  6  5  5  5  5  5  6
++         5  6  6  5  5  6  6  5  5  5  6  8  0  0  0  0  0
%c M  cc GPS ccc cccc cccc cccc cccc ccccc ccccc ccccc ccccc
%c cc cc ccc ccc cccc cccc cccc cccc ccccc ccccc ccccc ccccc
%f  0.0000000  0.000000000  0.00000000000  0.000000000000000
%f  0.0000000  0.000000000  0.00000000000  0.000000000000000
%i    0    0    0    0      0      0      0      0         0
%i    0    0    0    0      0      0      0      0         0
/*                                                          
/*   RSA / INFORMATION & ANALYSIS CENTER (IAC) OF MCC       
/*   ULTRA-RAPID DETERMINATION                              
/* PCV:IGS14_2056 OL/AL:FES2004  NONE     YN ORB:CoN CLK:CoN
*  2019 07 03 14 15  0.00000000
PC01 -32307.212030  27089.400233  -1036.397079    790.843116
PC02   4446.423214  41916.834692    978.541920     58.139382
PC05  21903.768054  36058.416825    827.906170   -336.438990
PC06  -7400.380392  27403.392430  31634.791222    575.254191
PC07 -23590.652660  24923.817928 -24665.753691     19.115841
PC08 -16518.211945  38461.368725  -3631.872443    167.589108
PC09   6039.246808  35462.902543  22502.243586   -215.354089
PC10  -6550.891050  26836.678793 -31784.794777     46.855991
PC11   9341.652569  26105.669523   2911.483264    243.998107
PC12  -9102.169814  16702.041866 -20331.728445    826.719435
PC13  -7994.900717  40327.516792   8785.212743   -817.813791
PC14   1605.307441  16560.581540  22476.455313    542.427191
PC16  -4323.380654  28624.649900  30752.914111   -899.991478
PE01 -27183.536306  11728.457628    100.008020   -639.277283
PE02  27163.694628 -11760.783580    -44.479766     67.619114
PE03  20779.334887  -3049.667499 -20843.805934   -184.187455
PE04  -3955.608815  17755.396423  23362.708482   -315.658493
PE05  25581.095400  13585.095680  -6080.841940   -469.669562
PE07 -15415.232996 -22169.945802 -12126.076128   -219.266747
PE08   3591.714908 -17737.181242 -23415.612702   6329.896275
PE09  15620.248969  21988.690111  12186.193344   6390.047605
PE11   5349.488243  26466.537030  12142.022596   5662.930052
PE12  -7571.615812  27759.907214  -6992.318586   6316.282857
PE13  -5366.260075 -26488.305684 -12064.323270    389.434314
PE14    376.430592  26266.910309 -15895.320233   -628.824783
PE15   7203.548645 -27921.901111   6672.540984    904.563961
PE18 -11812.523188 -23815.974353   1841.601685   -724.784510
PE19 -21863.219193   1270.411233  19924.997885     -5.390643
PE21 -23645.531227  -2376.534055  17652.286823   -542.252119
PE24   6420.808252  15047.293971 -24679.432234   5996.364361
PE25  23589.898517   2436.561019 -17702.291293   1754.057630
PE26 -14927.580871  -9600.300414 -23690.231491   4382.762136
PE27  -6177.399184 -15095.153843  24703.658940    436.617853
PE30  14777.812457 -18881.313326  17348.472901   4740.545171
PE31 -14886.285590  18919.443403 -17226.089301   -466.160981
PE33 -15582.199571  13014.095092 -21542.040625   -469.863383
PE36  14825.076372   9532.244863  23782.130253    692.086067
PG01  14031.767718 -21868.600907   4396.286233    -57.286467
PG02 -16705.075485   4443.105447 -19519.697716   -251.705562
PG03  16059.293815 -12874.823367 -16781.292077    183.001555
PG04 -10283.873633 -23784.897314  -5827.694550 999999.999999
PG05 -26582.659991   2115.016619   -793.795829      0.236598
PG06 -10837.029299 -11074.727793 -21525.805591    160.338210
PG07   4558.907347 -24201.492375   9555.029446    -56.896239
PG08  12888.705314  -7778.883752  21916.666523   -149.798458
PG09  -5259.123817 -22894.618085 -12423.377928    378.807557
PG10  15007.364254  11816.536197  18602.519797     -3.775038
PG11   9682.677877 -21237.980188  12380.338624   -570.124995
PG12 -18678.198994  10609.454340 -15725.060230    227.377163
PG13 -17002.582886  -2758.217419  20123.594249    -56.301648
PG14  17864.114026  16619.306585 -10388.791511    -73.258351
PG15 -12467.494507   9721.593865  21078.686605   -303.243057
PG16  26784.242065    737.750364   -610.423214    -53.135498
PG17 -15144.496480 -21663.711696  -2644.034631     82.265351
PG18  16370.267841 -16515.131982  12218.353501     66.928023
PG19 -17279.675073 -17521.347726 -10218.897065   -298.850378
PG20   5382.414714  14981.290770  21167.440280    525.744428
PG21   1209.795438  23166.274824  13875.153951   -161.587013
PG22  21763.684653 -10976.370754 -10219.135703   -725.973832
PG23   6366.974389 -15916.616356 -19841.079195   -178.966079
PG24 -14626.335117  20576.122228   7533.273629    -68.341953
PG25  -5079.927987  15086.136447 -21433.732993   -770.656298
PG26  23873.735146   5217.070394 -10640.477002    242.201522
PG27  18553.757409   5358.471616  18254.841695   -174.637852
PG28 -13438.110996 -13135.643709  19335.492987    766.886189
PG29    864.051261  21621.849800 -15430.144318    160.865163
PG30  -3824.758563 -19671.461893  17362.677982   -135.875373
PG31  12212.644516   9344.961061 -21625.203517     26.839431
PG32  16923.597204  20262.335554  -3391.709157    -17.943913
PJ01 -29103.375879  22768.472073  25451.376431   -278.306926
PJ02 -35242.460612  23058.258989   1740.565422     -0.790987
PJ03 -19252.830456  23811.424858 -24400.213235      1.566982
PJ07 -25408.794170  33654.122740     21.866141     -0.032413
PR01  -5004.157607 -13274.132635 -21196.388494     46.211279
PR02 -21371.583063 -12598.622546  -5775.442169    376.537311
PR03 -22381.196802  -3904.192670  11599.103869     -2.305677
PR04  -9875.269113   7289.867096  22379.839872    312.412031
PR05   7380.406575  13691.506585  20238.343390     31.204538
PR07  22242.939309   3698.342786 -11921.680053    -22.825285
PR08  10625.432737  -6805.824968 -22112.202439     16.927423
PR09  13481.912277   3095.992666 -21401.323780     78.217946
PR10  21065.464791  -8243.295774 -11718.945192     53.580868
PR11  17901.396878 -16892.719988   6607.702675    -71.492353
PR12   5071.115470 -15238.775230  19850.421860     40.314779
PR13 -11802.036927  -4282.523148  22190.107255    -25.544414
PR14 -21144.521586   8518.581243  11479.850259     40.556043
PR15 -18462.385502  16645.216257  -5713.539514    102.885261
PR16  -4500.189168  15330.399666 -19867.168291      7.870346
PR17 -10690.954775   -208.501395 -23156.572845    240.673414
PR18  -6356.787033  17267.940357 -17686.233577     -1.042958
PR19    698.334767  25347.753249  -2772.247418    -39.849231
PR20   8394.205289  18381.483811  15598.163506   -383.165745
PR21  10539.891107   -596.840233  23215.054336    -57.612686
PR22   5335.999611 -19239.957236  15795.113854    -26.762763
PR23  -3671.679066 -25083.765440  -2834.914793    238.306978
PR24  -9262.584647 -16643.232290 -16989.150070   -182.211359
PR26   7960.119667  20269.320334  13269.749023    -18.809997
EOF
